NORAD_CAT_ID,OBJECT_NAME,OBJECT_TYPE,EPOCH,MEAN_MOTION,ECCENTRICITY,INCLINATION,RA_OF_ASC_NODE,ARG_OF_PERICENTER,MEAN_ANOMALY,BSTAR,MEAN_MOTION_DOT,MEAN_MOTION_DDOT,TLE_LINE0,TLE_LINE1,TLE_LINE2,SEMIMAJOR_AXIS,PERIOD,APOGEE,PERIGEE,DECAYED
56461.0,STARLINK-6037,PAYLOAD,2023-05-16 16:00:00,15.90535379,0.0025509,70.0003,229.0598,159.4719,310.2825,-0.0029603,-0.00939036,0.00026511,0 STARLINK-6037,1 56461U 23064P   23136.66667824 -.00939036  26511-3 -29603-2 0  9999,2 56461  70.0003 229.0598 0025509 159.4719 310.2825 15.90535379  1308,6678.921,90.536,317.823,283.748,0.0
56461.0,STARLINK-6037,PAYLOAD,2023-05-16 22:00:00,15.90057149,0.0023308,70.0,228.3355,159.7862,300.8093,-0.003168,-0.00975555,0.00028317,0 STARLINK-6037,1 56461U 23064P   23136.91667824 -.00975555  28317-3 -31680-2 0  9997,2 56461  70.0000 228.3355 0023308 159.7862 300.8093 15.90057149  1334,6680.26,90.563,317.695,286.554,0.0
56461.0,STARLINK-6037,PAYLOAD,2023-05-17 22:00:00,15.8811277,0.0014011,69.9997,225.4433,163.7495,255.8075,-0.0036359,-0.00999707,0.00029075,0 STARLINK-6037,1 56461U 23064P   23137.91667824 -.00999707  29075-3 -36359-2 0  9993,2 56461  69.9997 225.4433 0014011 163.7495 255.8075 15.88112770  1494,6685.711,90.674,316.944,298.209,0.0
56461.0,STARLINK-6037,PAYLOAD,2023-05-18 14:00:01,15.86798364,0.0008157,69.9997,223.5198,172.2143,96.0782,-0.0037815,-0.00882863,0.0,0 STARLINK-6037,1 56461U 23064P   23138.58334491 -.00882863  00000-0 -37815-2 0  9994,2 56461  69.9997 223.5198 0008157 172.2143  96.0782 15.86798364  1600,6689.403,90.749,316.724,305.811,0.0
56461.0,STARLINK-6037,PAYLOAD,2023-05-18 22:00:00,15.86162071,0.0005614,69.9995,222.5596,184.6238,186.8579,-0.004081,-0.00917678,0.0,0 STARLINK-6037,1 56461U 23064P   23138.91667824 -.00917678  00000-0 -40810-2 0  9992,2 56461  69.9995 222.5596 0005614 184.6238 186.8579 15.86162071  1305,6691.192,90.785,316.813,309.3,0.0
56461.0,STARLINK-6037,PAYLOAD,2023-05-19 06:00:00,15.85526438,0.0003932,69.9998,221.6003,204.9005,268.9836,-0.0042471,-0.00924023,0.0,0 STARLINK-6037,1 56461U 23064P   23139.25001157 -.00924023  00000-0 -42471-2 0  9998,2 56461  69.9998 221.6003 0003932 204.9005 268.9836 15.85526438  1713,6692.98,90.822,317.477,312.213,0.0
56461.0,STARLINK-6037,PAYLOAD,2023-05-19 22:00:01,15.84210081,0.000333,69.9996,219.6847,259.3907,57.0442,-0.0044861,-0.00916398,0.0,0 STARLINK-6037,1 56461U 23064P   23139.91668981 -.00916398  00000-0 -44861-2 0  9996,2 56461  69.9996 219.6847 0003330 259.3907  57.0442 15.84210081  1309,6696.687,90.897,320.782,316.322,0.0
56461.0,STARLINK-6037,PAYLOAD,2023-05-20 06:00:00,15.83510277,0.000359,69.9999,218.7286,269.5234,146.9198,-0.0040607,-0.00812054,0.0,0 STARLINK-6037,1 56461U 23064P   23140.25001157 -.00812054  00000-0 -40607-2 0  9999,2 56461  69.9999 218.7286 0003590 269.5234 146.9198 15.83510277  1869,6698.66,90.937,322.93,318.12,0.0
56461.0,STARLINK-6037,PAYLOAD,2023-05-20 14:00:01,15.82777209,0.0003652,69.9996,217.7735,278.1641,237.5631,0.0017817,0.00393989,0.0,0 STARLINK-6037,1 56461U 23064P   23140.58334491  .00393989  00000-0  17817-2 0  9991,2 56461  69.9996 217.7735 0003652 278.1641 237.5631 15.82777209  1926,6700.728,90.979,325.04,320.146,0.0
56461.0,STARLINK-6037,PAYLOAD,2023-05-20 16:00:00,15.82808913,0.0003671,69.9992,217.5349,280.2988,350.1343,0.0021302,0.00476298,0.0,0 STARLINK-6037,1 56461U 23064P   23140.66667824  .00476298  00000-0  21302-2 0  9998,2 56461  69.9992 217.5349 0003671 280.2988 350.1343 15.82808913  1301,6700.638,90.978,324.963,320.044,0.0
56461.0,STARLINK-6037,PAYLOAD,2023-05-21 06:00:00,15.81632874,0.0003872,69.9991,215.863,267.9578,83.9586,-0.0053454,-0.00961842,0.0,0 STARLINK-6037,1 56461U 23064P   23141.25001157 -.00961842  00000-0 -53454-2 0  9994,2 56461  69.9991 215.8630 0003872 267.9578  83.9586 15.81632874  2024,6703.96,91.045,328.42,323.229,0.0
56461.0,STARLINK-6037,PAYLOAD,2023-05-21 14:00:01,15.80921001,0.0003656,69.9989,214.9094,276.5433,172.3263,-0.0049113,-0.00864622,0.0,0 STARLINK-6037,1 56461U 23064P   23141.58334491 -.00864622  00000-0 -49113-2 0  9995,2 56461  69.9989 214.9094 0003656 276.5433 172.3263 15.80921001  1308,6705.972,91.086,330.289,325.385,0.0
56461.0,STARLINK-6037,PAYLOAD,2023-05-21 22:00:00,15.80277498,0.0003458,69.9986,213.957,271.4481,273.574,-0.0052408,-0.008926,0.0,0 STARLINK-6037,1 56461U 23064P   23141.91667824 -.00892600  00000-0 -52408-2 0  9999,2 56461  69.9986 213.9570 0003458 271.4481 273.5740 15.80277498  2130,6707.792,91.123,331.977,327.338,0.0
56461.0,STARLINK-6037,PAYLOAD,2023-05-22 14:00:01,15.78971839,0.0003468,69.9989,212.0554,274.7162,100.2611,-0.0054505,-0.00876209,0.0,0 STARLINK-6037,1 56461U 23064P   23142.58334491 -.00876209  00000-0 -54505-2 0  9991,2 56461  69.9989 212.0554 0003468 274.7162 100.2611 15.78971839  2239,6711.49,91.199,335.682,331.027,0.0
56461.0,STARLINK-6037,PAYLOAD,2023-05-22 22:00:00,15.78305845,0.0003329,69.9986,211.1061,271.565,197.2263,-0.005543,-0.00865623,0.0,0 STARLINK-6037,1 56461U 23064P   23142.91667824 -.00865623  00000-0 -55430-2 0  9993,2 56461  69.9986 211.1061 0003329 271.5650 197.2263 15.78305845  1306,6713.377,91.237,337.477,333.008,0.0
56461.0,STARLINK-6037,PAYLOAD,2023-05-23 06:00:00,15.77715658,0.000332,69.9987,210.1579,268.3617,293.4314,-0.0063546,-0.00956005,0.0,0 STARLINK-6037,1 56461U 23064P   23143.25001157 -.00956005  00000-0 -63546-2 0  9994,2 56461  69.9987 210.1579 0003320 268.3617 293.4314 15.77715658  2345,6715.052,91.271,339.146,334.687,0.0
56461.0,STARLINK-6037,PAYLOAD,2023-05-23 22:00:00,15.76343264,0.000346,69.9979,208.2634,269.7427,115.7729,-0.0059633,-0.00854258,0.0,0 STARLINK-6037,1 56461U 23064P   23143.91667824 -.00854258  00000-0 -59633-2 0  9995,2 56461  69.9979 208.2634 0003460 269.7427 115.7729 15.76343264  2441,6718.948,91.351,343.138,338.489,0.0
56461.0,STARLINK-6037,PAYLOAD,2023-05-24 14:00:01,15.75056592,0.0003383,69.9981,206.3727,274.401,291.7442,-0.0064797,-0.00874936,0.0,0 STARLINK-6037,1 56461U 23064P   23144.58335648 -.00874936  00000-0 -64797-2 0  9997,2 56461  69.9981 206.3727 0003383 274.4010 291.7442 15.75056592  2554,6722.607,91.425,346.746,342.198,0.0
56461.0,STARLINK-6037,PAYLOAD,2023-05-24 22:00:00,15.74392855,0.0003545,69.998,205.4289,268.628,26.5684,-0.0065696,-0.00863065,0.0,0 STARLINK-6037,1 56461U 23064P   23144.91667824 -.00863065  00000-0 -65696-2 0  9998,2 56461  69.9980 205.4289 0003545 268.6280  26.5684 15.74392855  1308,6724.496,91.464,348.745,343.978,0.0
56461.0,STARLINK-6037,PAYLOAD,2023-05-25 04:00:01,15.74161996,0.0003074,69.9984,204.7217,265.8124,5.7973,0.00043401,0.00062629,0.0,0 STARLINK-6037,1 56461U 23064P   23145.16668981  .00062629  00000-0  43401-3 0  9997,2 56461  69.9984 204.7217 0003074 265.8124   5.7973 15.74161996  2646,6725.154,91.477,349.086,344.952,0.0
56461.0,STARLINK-6037,PAYLOAD,2023-05-25 12:00:00,15.73252387,0.0003295,69.9983,203.7795,272.1338,87.1238,-0.0068765,-0.00860103,0.0,0 STARLINK-6037,1 56461U 23064P   23145.50001157 -.00860103  00000-0 -68765-2 0  9995,2 56461  69.9983 203.7795 0003295 272.1338  87.1238 15.73252387  2695,6727.746,91.53,351.828,347.394,0.0
56461.0,STARLINK-6037,PAYLOAD,2023-05-25 14:00:01,15.73087675,0.0003285,69.9983,203.544,273.8297,197.2411,-0.0068476,-0.00851339,0.0,0 STARLINK-6037,1 56461U 23064P   23145.58334491 -.00851339  00000-0 -68476-2 0  9993,2 56461  69.9983 203.5440 0003285 273.8297 197.2411 15.73087675  1300,6728.215,91.54,352.291,347.87,0.0
56461.0,STARLINK-6037,PAYLOAD,2023-05-25 22:00:00,15.7243253,0.0003475,69.998,202.6027,267.8934,289.9474,-0.0071198,-0.00859891,0.0,0 STARLINK-6037,1 56461U 23064P   23145.91667824 -.00859891  00000-0 -71198-2 0  9995,2 56461  69.9980 202.6027 0003475 267.8934 289.9474 15.72432530  2762,6730.084,91.578,354.288,349.61,0.0
56461.0,STARLINK-6037,PAYLOAD,2023-05-26 14:00:01,15.71145275,0.0003685,69.9979,200.723,272.2176,96.7949,-0.007653,-0.00873763,0.0,0 STARLINK-6037,1 56461U 23064P   23146.58334491 -.00873763  00000-0 -76530-2 0  9999,2 56461  69.9979 200.7230 0003685 272.2176  96.7949 15.71145275  2864,6733.76,91.653,358.106,353.143,0.0
56461.0,STARLINK-6037,PAYLOAD,2023-05-26 22:00:01,15.70357521,0.0003525,69.9982,199.7843,265.5801,187.9492,-0.0048217,-0.00553307,0.0,0 STARLINK-6037,1 56461U 23064P   23146.91668981 -.00553307  00000-0 -48217-2 0  9990,2 56461  69.9982 199.7843 0003525 265.5801 187.9492 15.70357521  1300,6736.011,91.699,360.251,355.502,0.0
56461.0,STARLINK-6037,PAYLOAD,2023-05-27 06:00:02,15.69949815,0.000336,69.9988,198.8469,264.7307,272.4079,-0.00049028,-0.00058816,0.0,0 STARLINK-6037,1 56461U 23064P   23147.25002315 -.00058816  00000-0 -49028-3 0  9998,2 56461  69.9988 198.8469 0003360 264.7307 272.4079 15.69949815  2975,6737.178,91.723,361.306,356.779,0.0
56461.0,STARLINK-6037,PAYLOAD,2023-05-27 22:00:00,15.6986803,0.0003274,69.9986,196.9724,263.4801,80.2833,0.00060092,0.000725,0.0,0 STARLINK-6037,1 56461U 23064P   23147.91667824  .00072500  00000-0  60092-3 0  9991,2 56461  69.9986 196.9724 0003274 263.4801  80.2833 15.69868030  3079,6737.412,91.727,361.482,357.071,0.0
56461.0,STARLINK-6037,PAYLOAD,2023-05-28 06:00:00,15.69956885,0.0003376,69.9988,196.0354,264.0233,163.027,-0.00044968,-0.0005401,0.0,0 STARLINK-6037,1 56461U 23064P   23148.25001157 -.00054010  00000-0 -44968-3 0  9992,2 56461  69.9988 196.0354 0003376 264.0233 163.0270 15.69956885  1305,6737.157,91.722,361.297,356.748,0.0
56461.0,STARLINK-6037,PAYLOAD,2023-05-28 14:00:01,15.69926548,0.0003315,69.9985,195.0981,268.3493,242.0642,7.5119e-05,8.83e-05,0.0,0 STARLINK-6037,1 56461U 23064P   23148.58334491  .00008830  00000-0  75119-4 0  9998,2 56461  69.9985 195.0981 0003315 268.3493 242.0642 15.69926548  3187,6737.244,91.724,361.343,356.876,0.0
56461.0,STARLINK-6037,PAYLOAD,2023-05-28 22:00:00,15.69872723,0.0003404,69.9989,194.1607,260.9055,332.8765,0.00047363,0.00057004,0.0,0 STARLINK-6037,1 56461U 23064P   23148.91667824  .00057004  00000-0  47363-3 0  9990,2 56461  69.9989 194.1607 0003404 260.9055 332.8765 15.69872723  1308,6737.398,91.727,361.557,356.97,0.0
